GLOBALSTAR M069         
1 31573U 07020C   26193.37342287 -.00000075  00000+0  16106-3 0  9994
2 31573  52.0008 180.8387 0001724 204.1103 304.2710 12.23472156881889
GLOBALSTAR M072         
1 31574U 07020D   26193.72268132 -.00000076  00000+0  11186-3 0  9994
2 31574  51.9946  32.2631 0001654  30.4008  50.0590 11.91658683878026
GLOBALSTAR M066         
1 32265U 07048C   26193.85128615 -.00000065  00000+0  24796-3 0  9996
2 32265  51.9611 344.2390 0005631  97.0286  66.9340 12.30389166863380
GLOBALSTAR M079         
1 37188U 10054A   26193.71655832 -.00000103  00000+0  25791-5 0  9998
2 37188  52.0051  30.9548 0001110  73.5532   5.0835 12.62266402725779
GLOBALSTAR M074         
1 37189U 10054B   26193.74338154 -.00000097  00000+0  36171-4 0  9992
2 37189  52.0029  30.1345 0000869  90.1164 350.4825 12.62262035726380
GLOBALSTAR M076         
1 37190U 10054C   26193.76992720 -.00000088  00000+0  85428-4 0  9990
2 37190  52.0044  30.2594 0001095  86.1566 355.0315 12.62262273726108
GLOBALSTAR M077         
1 37191U 10054D   26193.79916008 -.00000090  00000+0 -22604-3 0  9999
2 37191  51.9950 114.2878 0002304 220.4693 171.6828 11.67547657724137
GLOBALSTAR M075         
1 37192U 10054E   26193.60899699 -.00000103  00000+0  24744-5 0  9999
2 37192  51.9949  72.7889 0000709  60.9768 309.0281 12.62267765725151
GLOBALSTAR M073         
1 37193U 10054F   26193.88084178 -.00000104  00000+0 -35579-5 0  9998
2 37193  52.0080 346.0817 0001087  93.1551  71.1005 12.62266872727179
GLOBALSTAR M083         
1 37739U 11033A   26193.47946881 -.00000090  00000+0  74362-4 0  9990
2 37739  51.9870 295.4988 0000829 103.0342 337.7221 12.62264008696140
GLOBALSTAR M088         
1 37740U 11033B   26193.04731002 -.00000082  00000+0  12258-3 0  9998
2 37740  52.0186 203.3016 0000099 156.9399 237.7264 12.62269410691639
GLOBALSTAR M091         
1 37741U 11033C   26193.32270145 -.00000106  00000+0 -10441-4 0  9997
2 37741  51.9976 165.3910 0000358  18.3851 128.9607 12.62264258692455
GLOBALSTAR M085         
1 37742U 11033D   26193.14910066 -.00000114  00000+0 -54730-4 0  9999
2 37742  52.0122 117.2336 0000722  37.0398 101.0784 12.62264339692940
GLOBALSTAR M081         
1 37743U 11033E   26193.78462684 -.00000123  00000+0 -10948-3 0  9990
2 37743  51.9951 117.7063 0000616  50.8780 336.3982 12.62265310693170
GLOBALSTAR M089         
1 37744U 11033F   26193.05736677 -.00000107  00000+0 -16870-4 0  9990
2 37744  51.9933  74.0749 0000669  86.0364  55.9244 12.62267549693928
GLOBALSTAR M084         
1 38040U 11080A   26192.33406171 -.00000097  00000+0  36683-4 0  9996
2 38040  52.0028 303.7724 0000939 123.2364 270.2173 12.62267887671816
